JILIN-1 GAOFEN 3A       
1 44312U 19032C   26201.97017341  .00008386  00000+0  26504-3 0  9996
2 44312  44.9738 170.9084 0005155 147.6431 212.4771 15.33271066393027
JILIN-1 GAOFEN 2A       
1 44777U 19075A   26201.92887631  .00010235  00000+0  25768-3 0  9997
2 44777  97.4954 286.5266 0004669 331.1407  28.9579 15.40106540370071
JILIN-1 GAOFEN 2B       
1 44836U 19086A   26201.89906771  .00003989  00000+0  18249-3 0  9992
2 44836  97.4863 273.6838 0013766 195.0265 165.0563 15.21037188365615
JILIN-1 GAOFEN 3E       
1 46457U 20065D   26201.90165447  .00058602  00000+0  53158-3 0  9991
2 46457  97.2203 255.3879 0009103  53.0006 307.2087 15.67796956325038
JILIN-1 GAOFEN 3F       
1 46458U 20065E   26201.92839687  .00050057  00000+0  52012-3 0  9992
2 46458  97.2160 252.5739 0010508  37.8435 322.3561 15.64410145324979
JILIN-1 GAOFEN 3G       
1 46459U 20065F   26201.89343347  .00112189  00000+0  65849-3 0  9999
2 46459  97.2213 259.9803 0006255 247.7918 112.2685 15.77930160325246
JILIN-1 GAOFEN 3H       
1 46460U 20065G   26201.95419477  .00083068  00000+0  60473-3 0  9997
2 46460  97.2166 256.1325 0007167 185.0361 175.0833 15.73043047325182
JILIN-1 GAOFEN 2D       
1 49256U 21086A   26201.93863460  .00002677  00000+0  16269-3 0  9991
2 49256  97.6511 324.6433 0033608  31.5612 328.7624 15.10893037265811
JILIN-1 GAOFEN 2F       
1 49338U 21097A   26201.94531751  .00002498  00000+0  16598-3 0  9996
2 49338  97.6739 328.0728 0020159 111.3008 249.0374 15.07975974261407
JILIN-1 GAOFEN 3D27     
1 52444U 22048B   26201.91516593  .00160203  00000+0  68848-3 0  9993
2 52444  97.5719 319.1554 0005658 232.2800 127.7957 15.84603905234804
JILIN-1 GAOFEN 3D28     
1 52445U 22048C   26201.76380247  .00214194  18879-4  71507-3 0  9995
2 52445  97.5674 319.3322 0005751 237.7721 122.2995 15.90182302234842
JILIN-1 GAOFEN 3D29     
1 52446U 22048D   26201.89931469  .00162642  00000+0  69145-3 0  9995
2 52446  97.5723 319.5055 0004661 220.1561 139.9365 15.84832684234822
JILIN-1 GAOFEN 3D31     
1 52448U 22048F   26201.88663784  .00348318  51378-4  80204-3 0  9992
2 52448  97.5740 320.9459 0006788 243.1387 116.9196 15.97224104234935
JILIN-1 GAOFEN 03D09    
1 53445U 22098B   26201.95446293  .00068521  00000+0  54744-3 0  9993
2 53445  97.5628 334.2798 0003666 215.7964 144.3053 15.70901627219922
JILIN-1 GAOFEN 03D43    
1 53448U 22098E   26201.91648039  .00084709  00000+0  57243-3 0  9997
2 53448  97.5617 335.4333 0003917 213.0890 147.0129 15.74803923219994
JILIN-1 GAOFEN 03D08    
1 54251U 22155A   26201.95946711  .00054517  00000+0  49043-3 0  9999
2 54251  97.6245 350.1624 0004496 208.9266 151.1746 15.68059585205104
