{"fetched_at":"2026-07-21T07:06:58.342Z","source":"https://celestrak.org/NORAD/elements/gp.php?NAME=JILIN&FORMAT=JSON","constellation":"jilin-1-gaofen","records":[{"OBJECT_NAME":"JILIN-1 GAOFEN 3A","OBJECT_ID":"2019-032C","EPOCH":"2026-07-20T23:17:02.982624","CLASSIFICATION_TYPE":"U","MEAN_MOTION":15.33271066,"ECCENTRICITY":0.0005155,"INCLINATION":44.9738,"RA_OF_ASC_NODE":170.9084,"ARG_OF_PERICENTER":147.6431,"MEAN_ANOMALY":212.4771,"EPHEMERIS_TYPE":0,"NORAD_CAT_ID":44312,"ELEMENT_SET_NO":999,"REV_AT_EPOCH":39302,"BSTAR":0.0002650406,"MEAN_MOTION_DOT":0.00008386,"MEAN_MOTION_DDOT":0},{"OBJECT_NAME":"JILIN-1 GAOFEN 2A","OBJECT_ID":"2019-075A","EPOCH":"2026-07-20T22:17:34.913184","CLASSIFICATION_TYPE":"U","MEAN_MOTION":15.4010654,"ECCENTRICITY":0.00046691,"INCLINATION":97.4954,"RA_OF_ASC_NODE":286.5266,"ARG_OF_PERICENTER":331.1407,"MEAN_ANOMALY":28.9579,"EPHEMERIS_TYPE":0,"NORAD_CAT_ID":44777,"ELEMENT_SET_NO":999,"REV_AT_EPOCH":37007,"BSTAR":0.00025767559,"MEAN_MOTION_DOT":0.00010235,"MEAN_MOTION_DDOT":0},{"OBJECT_NAME":"JILIN-1 GAOFEN 2B","OBJECT_ID":"2019-086A","EPOCH":"2026-07-20T21:34:39.450144","CLASSIFICATION_TYPE":"U","MEAN_MOTION":15.21037188,"ECCENTRICITY":0.00137664,"INCLINATION":97.4863,"RA_OF_ASC_NODE":273.6838,"ARG_OF_PERICENTER":195.0265,"MEAN_ANOMALY":165.0563,"EPHEMERIS_TYPE":0,"NORAD_CAT_ID":44836,"ELEMENT_SET_NO":999,"REV_AT_EPOCH":36561,"BSTAR":0.00018248629,"MEAN_MOTION_DOT":0.00003989,"MEAN_MOTION_DDOT":0},{"OBJECT_NAME":"JILIN-1 GAOFEN 3E","OBJECT_ID":"2020-065D","EPOCH":"2026-07-20T21:38:22.946208","CLASSIFICATION_TYPE":"U","MEAN_MOTION":15.67796956,"ECCENTRICITY":0.00091035,"INCLINATION":97.2203,"RA_OF_ASC_NODE":255.3879,"ARG_OF_PERICENTER":53.0006,"MEAN_ANOMALY":307.2087,"EPHEMERIS_TYPE":0,"NORAD_CAT_ID":46457,"ELEMENT_SET_NO":999,"REV_AT_EPOCH":32503,"BSTAR":0.00053157554,"MEAN_MOTION_DOT":0.00058602,"MEAN_MOTION_DDOT":0},{"OBJECT_NAME":"JILIN-1 GAOFEN 3F","OBJECT_ID":"2020-065E","EPOCH":"2026-07-20T22:16:53.489568","CLASSIFICATION_TYPE":"U","MEAN_MOTION":15.64410145,"ECCENTRICITY":0.00105084,"INCLINATION":97.216,"RA_OF_ASC_NODE":252.5739,"ARG_OF_PERICENTER":37.8435,"MEAN_ANOMALY":322.3561,"EPHEMERIS_TYPE":0,"NORAD_CAT_ID":46458,"ELEMENT_SET_NO":999,"REV_AT_EPOCH":32497,"BSTAR":0.00052011635,"MEAN_MOTION_DOT":0.00050057,"MEAN_MOTION_DDOT":0},{"OBJECT_NAME":"JILIN-1 GAOFEN 3G","OBJECT_ID":"2020-065F","EPOCH":"2026-07-20T21:26:32.651808","CLASSIFICATION_TYPE":"U","MEAN_MOTION":15.7793016,"ECCENTRICITY":0.00062555,"INCLINATION":97.2213,"RA_OF_ASC_NODE":259.9803,"ARG_OF_PERICENTER":247.7918,"MEAN_ANOMALY":112.2685,"EPHEMERIS_TYPE":0,"NORAD_CAT_ID":46459,"ELEMENT_SET_NO":999,"REV_AT_EPOCH":32524,"BSTAR":0.00065848812,"MEAN_MOTION_DOT":0.00112189,"MEAN_MOTION_DDOT":0},{"OBJECT_NAME":"JILIN-1 GAOFEN 3H","OBJECT_ID":"2020-065G","EPOCH":"2026-07-20T22:54:02.428128","CLASSIFICATION_TYPE":"U","MEAN_MOTION":15.73043047,"ECCENTRICITY":0.00071679,"INCLINATION":97.2166,"RA_OF_ASC_NODE":256.1325,"ARG_OF_PERICENTER":185.0361,"MEAN_ANOMALY":175.0833,"EPHEMERIS_TYPE":0,"NORAD_CAT_ID":46460,"ELEMENT_SET_NO":999,"REV_AT_EPOCH":32518,"BSTAR":0.00060473224,"MEAN_MOTION_DOT":0.00083068,"MEAN_MOTION_DDOT":0},{"OBJECT_NAME":"JILIN-1 GAOFEN 2D","OBJECT_ID":"2021-086A","EPOCH":"2026-07-20T22:31:38.029440","CLASSIFICATION_TYPE":"U","MEAN_MOTION":15.10893037,"ECCENTRICITY":0.00336088,"INCLINATION":97.6511,"RA_OF_ASC_NODE":324.6433,"ARG_OF_PERICENTER":31.5612,"MEAN_ANOMALY":328.7624,"EPHEMERIS_TYPE":0,"NORAD_CAT_ID":49256,"ELEMENT_SET_NO":999,"REV_AT_EPOCH":26581,"BSTAR":0.00016269391,"MEAN_MOTION_DOT":0.00002677,"MEAN_MOTION_DDOT":0},{"OBJECT_NAME":"JILIN-1 GAOFEN 2F","OBJECT_ID":"2021-097A","EPOCH":"2026-07-20T22:41:15.432864","CLASSIFICATION_TYPE":"U","MEAN_MOTION":15.07975974,"ECCENTRICITY":0.00201591,"INCLINATION":97.6739,"RA_OF_ASC_NODE":328.0728,"ARG_OF_PERICENTER":111.3008,"MEAN_ANOMALY":249.0374,"EPHEMERIS_TYPE":0,"NORAD_CAT_ID":49338,"ELEMENT_SET_NO":999,"REV_AT_EPOCH":26140,"BSTAR":0.00016598117,"MEAN_MOTION_DOT":0.00002498,"MEAN_MOTION_DDOT":0},{"OBJECT_NAME":"JILIN-1 GAOFEN 3D27","OBJECT_ID":"2022-048B","EPOCH":"2026-07-20T21:57:50.336352","CLASSIFICATION_TYPE":"U","MEAN_MOTION":15.84603905,"ECCENTRICITY":0.00056585,"INCLINATION":97.5719,"RA_OF_ASC_NODE":319.1554,"ARG_OF_PERICENTER":232.28,"MEAN_ANOMALY":127.7957,"EPHEMERIS_TYPE":0,"NORAD_CAT_ID":52444,"ELEMENT_SET_NO":999,"REV_AT_EPOCH":23480,"BSTAR":0.00068847988,"MEAN_MOTION_DOT":0.00160203,"MEAN_MOTION_DDOT":0},{"OBJECT_NAME":"JILIN-1 GAOFEN 3D28","OBJECT_ID":"2022-048C","EPOCH":"2026-07-20T18:19:52.533408","CLASSIFICATION_TYPE":"U","MEAN_MOTION":15.90182302,"ECCENTRICITY":0.00057511,"INCLINATION":97.5674,"RA_OF_ASC_NODE":319.3322,"ARG_OF_PERICENTER":237.7721,"MEAN_ANOMALY":122.2995,"EPHEMERIS_TYPE":0,"NORAD_CAT_ID":52445,"ELEMENT_SET_NO":999,"REV_AT_EPOCH":23484,"BSTAR":0.00071507419,"MEAN_MOTION_DOT":0.00214194,"MEAN_MOTION_DDOT":0.000018879309},{"OBJECT_NAME":"JILIN-1 GAOFEN 3D29","OBJECT_ID":"2022-048D","EPOCH":"2026-07-20T21:35:00.789216","CLASSIFICATION_TYPE":"U","MEAN_MOTION":15.84832684,"ECCENTRICITY":0.0004661,"INCLINATION":97.5723,"RA_OF_ASC_NODE":319.5055,"ARG_OF_PERICENTER":220.1561,"MEAN_ANOMALY":139.9365,"EPHEMERIS_TYPE":0,"NORAD_CAT_ID":52446,"ELEMENT_SET_NO":999,"REV_AT_EPOCH":23482,"BSTAR":0.00069144834,"MEAN_MOTION_DOT":0.00162642,"MEAN_MOTION_DDOT":0},{"OBJECT_NAME":"JILIN-1 GAOFEN 3D31","OBJECT_ID":"2022-048F","EPOCH":"2026-07-20T21:16:45.509376","CLASSIFICATION_TYPE":"U","MEAN_MOTION":15.97224104,"ECCENTRICITY":0.00067884,"INCLINATION":97.574,"RA_OF_ASC_NODE":320.9459,"ARG_OF_PERICENTER":243.1387,"MEAN_ANOMALY":116.9196,"EPHEMERIS_TYPE":0,"NORAD_CAT_ID":52448,"ELEMENT_SET_NO":999,"REV_AT_EPOCH":23493,"BSTAR":0.00080203648,"MEAN_MOTION_DOT":0.00348318,"MEAN_MOTION_DDOT":0.000051378433},{"OBJECT_NAME":"JILIN-1 GAOFEN 03D09","OBJECT_ID":"2022-098B","EPOCH":"2026-07-20T22:54:25.597152","CLASSIFICATION_TYPE":"U","MEAN_MOTION":15.70901627,"ECCENTRICITY":0.00036669,"INCLINATION":97.5628,"RA_OF_ASC_NODE":334.2798,"ARG_OF_PERICENTER":215.7964,"MEAN_ANOMALY":144.3053,"EPHEMERIS_TYPE":0,"NORAD_CAT_ID":53445,"ELEMENT_SET_NO":999,"REV_AT_EPOCH":21992,"BSTAR":0.00054744088,"MEAN_MOTION_DOT":0.00068521,"MEAN_MOTION_DDOT":0},{"OBJECT_NAME":"JILIN-1 GAOFEN 03D43","OBJECT_ID":"2022-098E","EPOCH":"2026-07-20T21:59:43.905696","CLASSIFICATION_TYPE":"U","MEAN_MOTION":15.74803923,"ECCENTRICITY":0.00039175,"INCLINATION":97.5617,"RA_OF_ASC_NODE":335.4333,"ARG_OF_PERICENTER":213.089,"MEAN_ANOMALY":147.0129,"EPHEMERIS_TYPE":0,"NORAD_CAT_ID":53448,"ELEMENT_SET_NO":999,"REV_AT_EPOCH":21999,"BSTAR":0.00057242627,"MEAN_MOTION_DOT":0.00084709,"MEAN_MOTION_DDOT":0},{"OBJECT_NAME":"JILIN-1 GAOFEN 03D08","OBJECT_ID":"2022-155A","EPOCH":"2026-07-20T23:01:37.958304","CLASSIFICATION_TYPE":"U","MEAN_MOTION":15.68059585,"ECCENTRICITY":0.0004496,"INCLINATION":97.6245,"RA_OF_ASC_NODE":350.1624,"ARG_OF_PERICENTER":208.9266,"MEAN_ANOMALY":151.1746,"EPHEMERIS_TYPE":0,"NORAD_CAT_ID":54251,"ELEMENT_SET_NO":999,"REV_AT_EPOCH":20510,"BSTAR":0.00049042645,"MEAN_MOTION_DOT":0.00054517,"MEAN_MOTION_DDOT":0}]}
